GLOBALSTAR M079 [+]     
1 37188U 10054A   23172.44503260 -.00000106  00000+0 -12152-4 0  9999
2 37188  52.0008 192.1069 0000249 147.9207 359.1377 12.62265946584675
GLOBALSTAR M074 [+]     
1 37189U 10054B   23172.38312456 -.00000109  00000+0 -27634-4 0  9992
2 37189  51.9987 191.7317 0000068 206.6525 258.3919 12.62268161585277
GLOBALSTAR M076 [+]     
1 37190U 10054C   23172.24564831 -.00000109  00000+0 -26470-4 0  9992
2 37190  52.0001 192.2549 0000550 189.1280 251.0094 12.62276000584971
GLOBALSTAR M077 [+]     
1 37191U 10054D   23172.23753870 -.00000126  00000+0 -12143-3 0  9995
2 37191  52.0045 148.9253 0000203   9.9730  93.0006 12.62268904585347
GLOBALSTAR M075 [+]     
1 37192U 10054E   23172.50168848 -.00000074  00000+0  16691-3 0  9994
2 37192  51.9932 234.1355 0000611 143.7831 321.3524 12.62269360584230
GLOBALSTAR M073 [+]     
1 37193U 10054F   23172.35275888 -.00000120  00000+0 -88275-4 0  9992
2 37193  52.0033 147.8528 0000198  16.6619 130.7911 12.62265384586044
GLOBALSTAR M083 [+]     
1 37739U 11033A   23172.52954866 -.00000094  00000+0  54444-4 0  9995
2 37739  51.9858  97.0381 0000829  50.2845 121.5698 12.62266726555083
GLOBALSTAR M088 [+]     
1 37740U 11033B   23172.54840705 -.00000092  00000+0  64781-4 0  9998
2 37740  51.9753   3.0845 0001187  92.4894 285.4944 12.62263427550636
GLOBALSTAR M091 [+]     
1 37741U 11033C   23172.57441803 -.00000091  00000+0  69072-4 0  9995
2 37741  52.0015 325.2607 0001174 104.9111 330.9074 12.62264237551420
GLOBALSTAR M085 [+]     
1 37742U 11033D   23172.54734977 -.00000104  00000+0 -95997-6 0  9993
2 37742  51.9875 277.0252 0000812 119.0763 254.1699 12.62264999551932
GLOBALSTAR M081 [+]     
1 37743U 11033E   23172.59427900 -.00000074  00000+0  16860-3 0  9998
2 37743  51.9961 279.2226 0000989 130.4590 334.8179 12.62268811552087
GLOBALSTAR M089 [+]     
1 37744U 11033F   23172.47474191 -.00000074  00000+0  16511-3 0  9993
2 37744  51.9915 233.9502 0000496 177.5801 284.9933 12.62264805552915
GLOBALSTAR M084 [+]     
1 38040U 11080A   23172.58247215 -.00000098  00000+0  29679-4 0  9998
2 38040  52.0006 100.5229 0000363  32.0031 140.1272 12.62271577530904
GLOBALSTAR M080 [+]     
1 38041U 11080B   23172.55598628 -.00000101  00000+0  18227-4 0  9995
2 38041  52.0056 101.9543 0000205  57.9844 114.0148 12.62267627531024
GLOBALSTAR M082 [+]     
1 38042U 11080C   23172.17282067 -.00000079  00000+0  13642-3 0  9990
2 38042  52.0087  58.4926 0001371  53.4573 115.6170 12.62268493531681
GLOBALSTAR M092 [+]     
1 38043U 11080D   23172.38303204 -.00000125  00000+0 -12052-3 0  9998
2 38043  52.0059 148.1900 0000320 318.3414 206.2710 12.62270169530162
GLOBALSTAR M090 [+]     
1 38044U 11080E   23172.43698619 -.00000085  00000+0  10648-3 0  9995
2 38044  51.9901  52.4333 0001025  71.1020  99.4852 12.62265549531834
GLOBALSTAR M086 [+]     
1 38045U 11080F   23172.06223854 -.00000086  00000+0  10130-3 0  9997
2 38045  51.9911  54.0684 0001403 116.8304  30.1736 12.62267886531733
GLOBALSTAR M097 [+]     
1 39072U 13005A   23172.61097774 -.00000098  00000+0  30139-4 0  9993
2 39072  52.0064 326.2090 0001150 103.0240 257.0755 12.62269396479051
GLOBALSTAR M093 [+]     
1 39073U 13005B   23172.58421490 -.00000093  00000+0  60728-4 0  9998
2 39073  51.9827 320.7546 0001369 106.8445 253.2572 12.62267028479002
GLOBALSTAR M094 [+]     
1 39074U 13005C   23172.42587179 -.00000075  00000+0  16288-3 0  9990
2 39074  51.9945 234.8937 0000554 140.5613 219.5294 12.62266030480594
GLOBALSTAR M096 [+]     
1 39075U 13005D   23172.59754703 -.00000069  00000+0  19155-3 0  9997
2 39075  52.0081 282.3179 0001024 119.1874 240.9096 12.62269351479537
GLOBALSTAR M078 [+]     
1 39076U 13005E   23172.01638519 -.00000211  00000+0 -59885-3 0  9995
2 39076  51.9895   9.5816 0001358  46.7323 313.3656 12.62260993478089
GLOBALSTAR M095 [+]     
1 39077U 13005F   23172.51847782 -.00000095  00000+0  49291-4 0  9995
2 39077  51.9818   5.6144 0001469  72.9073 287.1955 12.62266955478367
GLOBALSTAR M087 [+]     
1 52888U 22064A   23172.07286240 -.00000087  00000+0  78515-4 0  9994
2 52888  51.9774  31.0271 0009624 160.5617 199.5652 13.37547593 49060
